[{"OBJECT_NAME":"STARLINK-5980","OBJECT_ID":"2023-058K","EPOCH":"2026-03-09T22:28:35.452416","MEAN_MOTION":15.01262102,"ECCENTRICITY":0.00033832,"INCLINATION":97.6043,"RA_OF_ASC_NODE":70.3963,"ARG_OF_PERICENTER":51.2191,"MEAN_ANOMALY":308.9335,"EPHEMERIS_TYPE":0,"CLASSIFICATION_TYPE":"U","NORAD_CAT_ID":56326,"ELEMENT_SET_NO":999,"REV_AT_EPOCH":15781,"BSTAR":1.5938359e-5,"MEAN_MOTION_DOT":1.46e-6,"MEAN_MOTION_DDOT":0},{"OBJECT_NAME":"NTS (CANX-6)","OBJECT_ID":"2008-021B","EPOCH":"2026-03-09T21:01:43.854528","MEAN_MOTION":15.02479058,"ECCENTRICITY":0.00123192,"INCLINATION":97.9039,"RA_OF_ASC_NODE":46.2456,"ARG_OF_PERICENTER":105.3107,"MEAN_ANOMALY":254.9479,"EPHEMERIS_TYPE":0,"CLASSIFICATION_TYPE":"U","NORAD_CAT_ID":32784,"ELEMENT_SET_NO":999,"REV_AT_EPOCH":96921,"BSTAR":0.00045679857,"MEAN_MOTION_DOT":6.01e-5,"MEAN_MOTION_DDOT":0}]
